{
  "links" : {
    "next" : "https://api.nasa.gov/neo/rest/v1/feed?start_date=2000-04-23&end_date=2000-04-23&detailed=true&api_key=t0TVs3DtDT2H8Oy2Zy8m2eVrNsAVKAexjcZXUckd",
    "prev" : "https://api.nasa.gov/neo/rest/v1/feed?start_date=2000-04-21&end_date=2000-04-21&detailed=true&api_key=t0TVs3DtDT2H8Oy2Zy8m2eVrNsAVKAexjcZXUckd",
    "self" : "https://api.nasa.gov/neo/rest/v1/feed?start_date=2000-04-22&end_date=2000-04-22&detailed=true&api_key=t0TVs3DtDT2H8Oy2Zy8m2eVrNsAVKAexjcZXUckd"
  },
  "element_count" : 7,
  "near_earth_objects" : {
    "2000-04-22" : [ {
      "links" : {
        "self" : "https://api.nasa.gov/neo/rest/v1/neo/3751815?api_key=t0TVs3DtDT2H8Oy2Zy8m2eVrNsAVKAexjcZXUckd"
      },
      "neo_reference_id" : "3751815",
      "name" : "(2016 GS220)",
      "nasa_jpl_url" : "http://ssd.jpl.nasa.gov/sbdb.cgi?sstr=3751815",
      "absolute_magnitude_h" : 22.8,
      "estimated_diameter" : {
        "kilometers" : {
          "estimated_diameter_min" : 0.0732073989,
          "estimated_diameter_max" : 0.1636967205
        },
        "meters" : {
          "estimated_diameter_min" : 73.2073989347,
          "estimated_diameter_max" : 163.696720474
        },
        "miles" : {
          "estimated_diameter_min" : 0.0454889547,
          "estimated_diameter_max" : 0.1017163949
        },
        "feet" : {
          "estimated_diameter_min" : 240.181762721,
          "estimated_diameter_max" : 537.0627483999
        }
      },
      "is_potentially_hazardous_asteroid" : false,
      "close_approach_data" : [ {
        "close_approach_date" : "2000-04-22",
        "epoch_date_close_approach" : 956386800000,
        "relative_velocity" : {
          "kilometers_per_second" : "24.9614952305",
          "kilometers_per_hour" : "89861.3828299595",
          "miles_per_hour" : "55836.3686812045"
        },
        "miss_distance" : {
          "astronomical" : "0.3073942715",
          "lunar" : "119.5763702393",
          "kilometers" : "45985528",
          "miles" : "28574082"
        },
        "orbiting_body" : "Earth"
      } ],
      "orbital_data" : {
        "orbit_id" : "7",
        "orbit_determination_date" : "2017-04-06 08:26:34",
        "orbit_uncertainty" : "6",
        "minimum_orbit_intersection" : ".0452308",
        "jupiter_tisserand_invariant" : "6.708",
        "epoch_osculation" : "2458000.5",
        "eccentricity" : ".513906570440738",
        "semi_major_axis" : ".8653553647152513",
        "inclination" : "6.812692898480357",
        "ascending_node_longitude" : "64.12627502627186",
        "orbital_period" : "294.0289970235248",
        "perihelion_distance" : ".4206435570219426",
        "perihelion_argument" : "292.8831880645742",
        "aphelion_distance" : "1.31006717240856",
        "perihelion_time" : "2457885.993670271702",
        "mean_anomaly" : "140.1980046848551",
        "mean_motion" : "1.224369037218451",
        "equinox" : "J2000"
      }
    } ]
  }
}